[{"OBJECT_NAME":"SENTINEL-1D","OBJECT_ID":"2025-251A","EPOCH":"2026-03-09T22:39:29.854656","MEAN_MOTION":14.59197847,"ECCENTRICITY":0.00012838,"INCLINATION":98.1825,"RA_OF_ASC_NODE":77.7074,"ARG_OF_PERICENTER":89.3991,"MEAN_ANOMALY":270.7355,"EPHEMERIS_TYPE":0,"CLASSIFICATION_TYPE":"U","NORAD_CAT_ID":66315,"ELEMENT_SET_NO":999,"REV_AT_EPOCH":1825,"BSTAR":3.3692424e-5,"MEAN_MOTION_DOT":1.13e-6,"MEAN_MOTION_DDOT":0},{"OBJECT_NAME":"NOAA 16 DEB","OBJECT_ID":"2000-055FG","EPOCH":"2026-03-09T22:40:25.316544","MEAN_MOTION":14.55406077,"ECCENTRICITY":0.00149423,"INCLINATION":99.0893,"RA_OF_ASC_NODE":328.4543,"ARG_OF_PERICENTER":79.0507,"MEAN_ANOMALY":281.2368,"EPHEMERIS_TYPE":0,"CLASSIFICATION_TYPE":"U","NORAD_CAT_ID":41256,"ELEMENT_SET_NO":999,"REV_AT_EPOCH":52973,"BSTAR":0.0031001613,"MEAN_MOTION_DOT":0.0001346,"MEAN_MOTION_DDOT":0}]
